NORAD_CAT_ID,OBJECT_NAME,OBJECT_TYPE,EPOCH,MEAN_MOTION,ECCENTRICITY,INCLINATION,RA_OF_ASC_NODE,ARG_OF_PERICENTER,MEAN_ANOMALY,BSTAR,MEAN_MOTION_DOT,MEAN_MOTION_DDOT,TLE_LINE0,TLE_LINE1,TLE_LINE2,SEMIMAJOR_AXIS,PERIOD,APOGEE,PERIGEE,DECAYED
51780.0,STARLINK-3617,PAYLOAD,2022-07-31 14:00:01,15.08814192,0.0002931999999999,53.2186,131.8412,60.2897,249.94,0.0018725999999999,0.0002962,0.0,0 STARLINK-3617,1 51780U 22017N   22212.58334491  .00029620  00000-0  18726-2 0  9994,2 51780  53.2186 131.8412 0002932  60.2897 249.9400 15.08814192  1307,6917.959,95.439,541.8530000000002,537.7959999999998,0.0
51780.0,STARLINK-3617,PAYLOAD,2022-07-31 22:00:00,15.08851475,0.0003001,53.2187,130.3455,60.9382,260.86400000000003,-0.0014946,-0.00024006,0.0,0 STARLINK-3617,1 51780U 22017N   22212.91667824 -.00024006  00000-0 -14946-2 0  9995,2 51780  53.2187 130.3455 0003001  60.9382 260.8640 15.08851475  1306,6917.845,95.437,541.786,537.634,0.0
51780.0,STARLINK-3617,PAYLOAD,2022-08-01 14:00:01,15.08824315,0.0002945,53.2185,127.3523,62.969,282.0341,0.0023949,0.00038018,0.0,0 STARLINK-3617,1 51780U 22017N   22213.58334491  .00038018  00000-0  23949-2 0  9999,2 51780  53.2185 127.3523 0002945  62.9690 282.0341 15.08824315 25422,6917.928000000001,95.439,541.831,537.756,0.0
51780.0,STARLINK-3617,PAYLOAD,2022-08-01 22:00:00,15.08874707,0.0002982,53.2186,125.8568,62.7087,293.8811,-0.003368,-0.00053548,0.0,0 STARLINK-3617,1 51780U 22017N   22213.91667824 -.00053548  00000-0 -33680-2 0  9995,2 51780  53.2186 125.8568 0002982  62.7087 293.8811 15.08874707  1307,6917.774,95.435,541.702,537.576,0.0
51780.0,STARLINK-3617,PAYLOAD,2022-08-02 06:00:02,15.08819903,0.0002987,53.218,124.3612,59.3999,308.8694,0.0010809,0.00016947,0.0,0 STARLINK-3617,1 51780U 22017N   22214.25002315  .00016947  00000-0  10809-2 0  9999,2 51780  53.2180 124.3612 0002987  59.3999 308.8694 15.08819903 25527,6917.941999999999,95.439,541.873,537.74,0.0
51780.0,STARLINK-3617,PAYLOAD,2022-08-02 14:00:01,15.08806054,0.0002839999999999,53.218,122.8632,64.8036,314.9909,0.0027164999999999,0.00043172,0.0,0 STARLINK-3617,1 51780U 22017N   22214.58334491  .00043172  00000-0  27165-2 0  9991,2 51780  53.2180 122.8632 0002840  64.8036 314.9909 15.08806054  1303,6917.984,95.44,541.814,537.884,0.0
51780.0,STARLINK-3617,PAYLOAD,2022-08-03 06:00:00,15.0882698,0.0002986,53.2175,119.8722,61.8269,341.1284,0.0013767,0.00021683,0.0,0 STARLINK-3617,1 51780U 22017N   22215.25001157  .00021683  00000-0  13767-2 0  9992,2 51780  53.2175 119.8722 0002986  61.8269 341.1284 15.08826980 25673,6917.92,95.438,541.851,537.719,0.0
51780.0,STARLINK-3617,PAYLOAD,2022-08-03 14:00:01,15.08816488,0.0002872,53.2174,118.3741,67.4707,347.084,0.0028615,0.0004551999999999,0.0,0 STARLINK-3617,1 51780U 22017N   22215.58334491  .00045520  00000-0  28615-2 0  9992,2 51780  53.2174 118.3741 0002872  67.4707 347.0840 15.08816488  1309,6917.9519999999975,95.439,541.804,537.83,0.0
51780.0,STARLINK-3617,PAYLOAD,2022-08-03 22:00:01,15.08858725,0.0002988,53.2174,116.879,66.6978,359.5031,-0.0018207999999999,-0.00029167,0.0,0 STARLINK-3617,1 51780U 22017N   22215.91668981 -.00029167  00000-0 -18208-2 0  9991,2 51780  53.2174 116.8790 0002988  66.6978 359.5031 15.08858725  1305,6917.823,95.436,541.755,537.621,0.0
51780.0,STARLINK-3617,PAYLOAD,2022-08-04 06:00:00,15.08850754,0.0002987,53.217,115.3831,63.7672,13.9713,-0.00093061,-0.00015074,0.0,0 STARLINK-3617,1 51780U 22017N   22216.25001157 -.00015074  00000-0 -93061-3 0  9998,2 51780  53.2170 115.3831 0002987  63.7672  13.9713 15.08850754 25824,6917.848000000001,95.437,541.779,537.646,0.0
51780.0,STARLINK-3617,PAYLOAD,2022-08-04 14:00:01,15.08807449,0.0002822,53.217,113.885,68.9475,20.4069,0.00225,0.00035672,0.0,0 STARLINK-3617,1 51780U 22017N   22216.58334491  .00035672  00000-0  22500-2 0  9997,2 51780  53.2170 113.8850 0002822  68.9475  20.4069 15.08807449  1301,6917.98,95.44,541.797,537.893,0.0
51780.0,STARLINK-3617,PAYLOAD,2022-08-04 22:00:00,15.08840309,0.000295,53.2171,112.3899,67.5413,33.3486,-0.0016934,-0.0002714,0.0,0 STARLINK-3617,1 51780U 22017N   22216.91667824 -.00027140  00000-0 -16934-2 0  9990,2 51780  53.2171 112.3899 0002950  67.5413  33.3486 15.08840309  1306,6917.879,95.438,541.785,537.7040000000002,0.0
51780.0,STARLINK-3617,PAYLOAD,2022-08-05 06:00:02,15.08830862,0.0002969,53.2169,110.8938,65.0423,47.4937,0.00059266,9.154e-05,0.0,0 STARLINK-3617,1 51780U 22017N   22217.25002315  .00009154  00000-0  59266-3 0  9995,2 51780  53.2169 110.8938 0002969  65.0423  47.4937 15.08830862 25973,6917.908,95.438,541.827,537.719,0.0
51780.0,STARLINK-3617,PAYLOAD,2022-08-05 14:00:01,15.08818002,0.0002887999999999,53.2171,109.3958,70.2666,53.8679,0.0028539,0.00045399,0.0,0 STARLINK-3617,1 51780U 22017N   22217.58335648  .00045399  00000-0  28539-2 0  9998,2 51780  53.2171 109.3958 0002888  70.2666  53.8679 15.08818002  1305,6917.948,95.439,541.811,537.815,0.0
51780.0,STARLINK-3617,PAYLOAD,2022-08-05 22:00:00,15.08855144,0.0003025,53.2173,107.9008,68.732,66.9267,-0.0013507,-0.00021731,0.0,0 STARLINK-3617,1 51780U 22017N   22217.91667824 -.00021731  00000-0 -13507-2 0  9994,2 51780  53.2173 107.9008 0003025  68.7320  66.9267 15.08855144  1306,6917.834,95.437,541.7919999999998,537.606,0.0
51780.0,STARLINK-3617,PAYLOAD,2022-08-06 08:00:01,15.08879612,0.0002955,53.2175,106.03,68.0013,172.1547,-0.004234,-0.00067124,0.0,0 STARLINK-3617,1 51780U 22017N   22218.33334491 -.00067124  00000-0 -42340-2 0  9995,2 51780  53.2175 106.0300 0002955  68.0013 172.1547 15.08879612 26142,6917.759,95.435,541.669,537.58,0.0
51780.0,STARLINK-3617,PAYLOAD,2022-08-06 14:00:01,15.08821839,0.0002875,53.2177,104.9067,71.1201,87.7598,0.0015208,0.00023987,0.0,0 STARLINK-3617,1 51780U 22017N   22218.58334491  .00023987  00000-0  15208-2 0  9992,2 51780  53.2177 104.9067 0002875  71.1201  87.7598 15.08821839  1302,6917.936,95.439,541.79,537.812,0.0
51780.0,STARLINK-3617,PAYLOAD,2022-08-06 21:14:53,15.08837905,0.0002912,53.2193,103.5514,70.7469,289.3838,0.00012441,1.692e-05,0.0,0 STARLINK-3617,1 51780U 22017N   22218.88533782  .00001692  00000-0  12441-3 0  9995,2 51780  53.2193 103.5514 0002912  70.7469 289.3838 15.08837905 24533,6917.887,95.438,541.766,537.737,0.0
51780.0,STARLINK-3617,PAYLOAD,2022-08-06 22:00:00,15.0884218,0.0002988,53.2179,103.4118,68.9453,101.5177,-0.0010881999999999,-0.00017568,0.0,0 STARLINK-3617,1 51780U 22017N   22218.91667824 -.00017568  00000-0 -10882-2 0  9991,2 51780  53.2179 103.4118 0002988  68.9453 101.5177 15.08842180 26232,6917.874,95.437,541.806,537.672,0.0
51780.0,STARLINK-3617,PAYLOAD,2022-08-07 14:00:01,15.08839525,0.000288,53.2184,100.4178,72.5355,121.1178,0.00047121,7.219e-05,0.0,0 STARLINK-3617,1 51780U 22017N   22219.58334491  .00007219  00000-0  47121-3 0  9993,2 51780  53.2184 100.4178 0002880  72.5355 121.1178 15.08839525  1303,6917.882,95.438,541.739,537.754,0.0
51780.0,STARLINK-3617,PAYLOAD,2022-08-07 21:05:39,15.08851307,0.0002866,53.219,99.0909,69.7382,290.3918,8.6344e-05,1.086e-05,0.0,0 STARLINK-3617,1 51780U 22017N   22219.87893071  .00001086  00000-0  86344-4 0  9996,2 51780  53.2190  99.0909 0002866  69.7382 290.3918 15.08851307 24686,6917.846,95.437,541.693,537.7280000000002,0.0
51780.0,STARLINK-3617,PAYLOAD,2022-08-08 14:00:01,15.08836908,0.0002795,53.219,95.9289,73.9625,154.5539,0.0029884,0.00047592,0.0,0 STARLINK-3617,1 51780U 22017N   22220.58335648  .00047592  00000-0  29884-2 0  9993,2 51780  53.2190  95.9289 0002795  73.9625 154.5539 15.08836908  1304,6917.89,95.438,541.688,537.821,0.0
51780.0,STARLINK-3617,PAYLOAD,2022-08-08 22:00:00,15.08874539,0.0002818,53.2191,94.4344,70.5859,169.4811,-0.0028878,-0.00046002,0.0,0 STARLINK-3617,1 51780U 22017N   22220.91667824 -.00046002  00000-0 -28878-2 0  9993,2 51780  53.2191  94.4344 0002818  70.5859 169.4811 15.08874539  1309,6917.775,95.435,541.589,537.69,0.0
51780.0,STARLINK-3617,PAYLOAD,2022-08-09 06:00:00,15.08867883,0.0002661999999999,53.2189,92.9378,69.7035,181.9713,-0.0040345,-0.00063981,0.0,0 STARLINK-3617,1 51780U 22017N   22221.25001157 -.00063981  00000-0 -40345-2 0  9990,2 51780  53.2189  92.9378 0002662  69.7035 181.9713 15.08867883 26580,6917.795,95.436,541.502,537.819,0.0
51780.0,STARLINK-3617,PAYLOAD,2022-08-09 14:00:01,15.08821762,0.0002525,53.2191,91.4402,74.9133,188.3586,0.00041326,6.292e-05,0.0,0 STARLINK-3617,1 51780U 22017N   22221.58334491  .00006292  00000-0  41326-3 0  9997,2 51780  53.2191  91.4402 0002525  74.9133 188.3586 15.08821762  1308,6917.936,95.439,541.548,538.054,0.0
51780.0,STARLINK-3617,PAYLOAD,2022-08-09 22:00:00,15.08811289,0.0002556,53.219,89.9458,70.3872,204.4614,-0.00066522,-0.00010852,0.0,0 STARLINK-3617,1 51780U 22017N   22221.91667824 -.00010852  00000-0 -66522-3 0  9997,2 51780  53.2190  89.9458 0002556  70.3872 204.4614 15.08811289 26687,6917.968000000003,95.439,541.601,538.065,0.0
51780.0,STARLINK-3617,PAYLOAD,2022-08-10 14:00:01,15.08807028,0.000246,53.2187,86.9516,76.8929,221.0821,0.0025017,0.00039716,0.0,0 STARLINK-3617,1 51780U 22017N   22222.58334491  .00039716  00000-0  25017-2 0  9993,2 51780  53.2187  86.9516 0002460  76.8929 221.0821 15.08807028  1306,6917.981,95.44,541.548,538.144,0.0
51780.0,STARLINK-3617,PAYLOAD,2022-08-10 17:07:18,15.08835115,0.0002487,53.2188,86.3685,76.5093,208.3454,-0.00076401,-0.00012426,0.0,0 STARLINK-3617,1 51780U 22017N   22222.71341435 -.00012426  00000-0 -76401-3 0  9999,2 51780  53.2188  86.3685 0002487  76.5093 208.3454 15.08835115 26806,6917.895,95.438,541.481,538.04,0.0
51780.0,STARLINK-3617,PAYLOAD,2022-08-10 22:00:00,15.08824517,0.000256,53.2185,85.4572,72.6229,236.9231,-0.00010274,-1.923e-05,0.0,0 STARLINK-3617,1 51780U 22017N   22222.91667824 -.00001923  00000-0 -10274-3 0  9990,2 51780  53.2185  85.4572 0002560  72.6229 236.9231 15.08824517  1300,6917.928000000001,95.439,541.564,538.0219999999998,0.0
